{"type": "FeatureCollection", "features": [{"type": "Feature", "properties": {"norad_id": 22490, "name": "SCD 1", "group": "resource", "lat": 22.23919265241147, "lon": -1.3380071834145333, "alt_km": 730.7744426426498, "timestamp": "2025-12-18T23:35:48.703458+00:00", "meta": {"OBJECT_NAME": "SCD 1", "OBJECT_ID": "1993-009B", "EPOCH": "2025-12-18T10:33:14.558976", "MEAN_MOTION": 14.46002995, "ECCENTRICITY": 0.00420424, "INCLINATION": 24.9686, "RA_OF_ASC_NODE": 243.5007, "ARG_OF_PERICENTER": 25.3935, "MEAN_ANOMALY": 135.5853, "EPHEMERIS_TYPE": 0, "CLASSIFICATION_TYPE": "U", "NORAD_CAT_ID": 22490, "ELEMENT_SET_NO": 999, "REV_AT_EPOCH": 73492, "BSTAR": 7.3091886e-05, "MEAN_MOTION_DOT": 4.52e-06, "MEAN_MOTION_DDOT": 0}, "tle": {"line1": "1 22490U 93009B   25352.43975184  .00000452  00000+0  73092-4 0  9991", "line2": "2 22490  24.9686 243.5007 0042042  25.3935 135.5853 14.46002995734929"}}, "geometry": {"type": "Point", "coordinates": [-1.3380071834145333, 22.23919265241147]}}, {"type": "Feature", "properties": {"norad_id": 25397, "name": "TECHSAT 1B (GO-32)", "group": "resource", "lat": 52.841792513147304, "lon": 168.39954681467876, "alt_km": 805.3344421304746, "timestamp": "2025-12-18T23:35:48.703488+00:00", "meta": {"OBJECT_NAME": "TECHSAT 1B (GO-32)", "OBJECT_ID": "1998-043D", "EPOCH": "2025-12-18T11:12:20.257632", "MEAN_MOTION": 14.24378705, "ECCENTRICITY": 0.00018961, "INCLINATION": 98.9925, "RA_OF_ASC_NODE": 335.8113, "ARG_OF_PERICENTER": 48.3559, "MEAN_ANOMALY": 311.7781, "EPHEMERIS_TYPE": 0, "CLASSIFICATION_TYPE": "U", "NORAD_CAT_ID": 25397, "ELEMENT_SET_NO": 999, "REV_AT_EPOCH": 42560, "BSTAR": 4.9909944e-05, "MEAN_MOTION_DOT": 6.9e-07, "MEAN_MOTION_DDOT": 0}, "tle": {"line1": "1 25397U 98043D   25352.46690113  .00000069  00000+0  49910-4 0  9998", "line2": "2 25397  98.9925 335.8113 0001896  48.3559 311.7781 14.24378705425608"}}, "geometry": {"type": "Point", "coordinates": [168.39954681467876, 52.841792513147304]}}, {"type": "Feature", "properties": {"norad_id": 25504, "name": "SCD 2", "group": "resource", "lat": 17.389752485815578, "lon": -118.84129171592782, "alt_km": 741.2309680414937, "timestamp": "2025-12-18T23:35:48.703505+00:00", "meta": {"OBJECT_NAME": "SCD 2", "OBJECT_ID": "1998-060A", "EPOCH": "2025-12-18T13:28:54.067296", "MEAN_MOTION": 14.45426435, "ECCENTRICITY": 0.00168912, "INCLINATION": 24.9943, "RA_OF_ASC_NODE": 105.9962, "ARG_OF_PERICENTER": 15.2834, "MEAN_ANOMALY": 81.8932, "EPHEMERIS_TYPE": 0, "CLASSIFICATION_TYPE": "U", "NORAD_CAT_ID": 25504, "ELEMENT_SET_NO": 999, "REV_AT_EPOCH": 43416, "BSTAR": 5.3200301e-05, "MEAN_MOTION_DOT": 3.72e-06, "MEAN_MOTION_DDOT": 0}, "tle": {"line1": "1 25504U 98060A   25352.56173689  .00000372  00000+0  53200-4 0  9996", "line2": "2 25504  24.9943 105.9962 0016891  15.2834  81.8932 14.45426435434166"}}, "geometry": {"type": "Point", "coordinates": [-118.84129171592782, 17.389752485815578]}}, {"type": "Feature", "properties": {"norad_id": 25757, "name": "DLR-TUBSAT", "group": "resource", "lat": -70.5512455821302, "lon": 132.13080744760225, "alt_km": 723.2628751721095, "timestamp": "2025-12-18T23:35:48.703518+00:00", "meta": {"OBJECT_NAME": "DLR-TUBSAT", "OBJECT_ID": "1999-029B", "EPOCH": "2025-12-17T13:22:10.787520", "MEAN_MOTION": 14.52359578, "ECCENTRICITY": 0.00141996, "INCLINATION": 98.6566, "RA_OF_ASC_NODE": 336.2196, "ARG_OF_PERICENTER": 177.8976, "MEAN_ANOMALY": 182.2281, "EPHEMERIS_TYPE": 0, "CLASSIFICATION_TYPE": "U", "NORAD_CAT_ID": 25757, "ELEMENT_SET_NO": 999, "REV_AT_EPOCH": 40688, "BSTAR": 3.7650132e-05, "MEAN_MOTION_DOT": 1.05e-06, "MEAN_MOTION_DDOT": 0}, "tle": {"line1": "1 25757U 99029B   25351.55706930  .00000105  00000+0  37650-4 0  9996", "line2": "2 25757  98.6566 336.2196 0014199 177.8976 182.2281 14.52359578406886"}}, "geometry": {"type": "Point", "coordinates": [132.13080744760225, -70.5512455821302]}}, {"type": "Feature", "properties": {"norad_id": 25994, "name": "TERRA", "group": "resource", "lat": 32.51784416522308, "lon": -130.43480525441413, "alt_km": 687.2596444417431, "timestamp": "2025-12-18T23:35:48.703530+00:00", "meta": {"OBJECT_NAME": "TERRA", "OBJECT_ID": "1999-068A", "EPOCH": "2025-12-18T15:14:00.866400", "MEAN_MOTION": 14.6090837, "ECCENTRICITY": 0.00035644, "INCLINATION": 97.9741, "RA_OF_ASC_NODE": 44.1027, "ARG_OF_PERICENTER": 82.8541, "MEAN_ANOMALY": 32.5329, "EPHEMERIS_TYPE": 0, "CLASSIFICATION_TYPE": "U", "NORAD_CAT_ID": 25994, "ELEMENT_SET_NO": 999, "REV_AT_EPOCH": 38324, "BSTAR": 8.4675939e-05, "MEAN_MOTION_DOT": 3.7e-06, "MEAN_MOTION_DDOT": 0}, "tle": {"line1": "1 25994U 99068A   25352.63473225  .00000370  00000+0  84676-4 0  9994", "line2": "2 25994  97.9741  44.1027 0003564  82.8541  32.5329 14.60908370383244"}}, "geometry": {"type": "Point", "coordinates": [-130.43480525441413, 32.51784416522308]}}, {"type": "Feature", "properties": {"norad_id": 27004, "name": "MAROC-TUBSAT", "group": "resource", "lat": -77.32264966464274, "lon": -68.60600720645553, "alt_km": 992.5232009542042, "timestamp": "2025-12-18T23:35:48.703543+00:00", "meta": {"OBJECT_NAME": "MAROC-TUBSAT", "OBJECT_ID": "2001-056D", "EPOCH": "2025-12-18T10:19:04.944576", "MEAN_MOTION": 13.70253205, "ECCENTRICITY": 0.00191492, "INCLINATION": 99.7913, "RA_OF_ASC_NODE": 160.9746, "ARG_OF_PERICENTER": 244.9813, "MEAN_ANOMALY": 168.9616, "EPHEMERIS_TYPE": 0, "CLASSIFICATION_TYPE": "U", "NORAD_CAT_ID": 27004, "ELEMENT_SET_NO": 999, "REV_AT_EPOCH": 20143, "BSTAR": 2.5892592e-05, "MEAN_MOTION_DOT": -2.4e-07, "MEAN_MOTION_DDOT": 0}, "tle": {"line1": "1 27004U 01056D   25352.42991834 -.00000024  00000+0  25893-4 0  9999", "line2": "2 27004  99.7913 160.9746 0019149 244.9813 168.9616 13.70253205201436"}}, "geometry": {"type": "Point", "coordinates": [-68.60600720645553, -77.32264966464274]}}, {"type": "Feature", "properties": {"norad_id": 27424, "name": "AQUA", "group": "resource", "lat": 42.08641648685764, "lon": -53.70923437235196, "alt_km": 683.518866556451, "timestamp": "2025-12-18T23:35:48.703554+00:00", "meta": {"OBJECT_NAME": "AQUA", "OBJECT_ID": "2002-022A", "EPOCH": "2025-12-18T00:44:29.182848", "MEAN_MOTION": 14.61821302, "ECCENTRICITY": 0.00012878, "INCLINATION": 98.4043, "RA_OF_ASC_NODE": 312.9961, "ARG_OF_PERICENTER": 113.4651, "MEAN_ANOMALY": 320.6588, "EPHEMERIS_TYPE": 0, "CLASSIFICATION_TYPE": "U", "NORAD_CAT_ID": 27424, "ELEMENT_SET_NO": 999, "REV_AT_EPOCH": 25680, "BSTAR": 0.00017905095, "MEAN_MOTION_DOT": 8.45e-06, "MEAN_MOTION_DDOT": 0}, "tle": {"line1": "1 27424U 02022A   25352.03089332  .00000845  00000+0  17905-3 0  9991", "line2": "2 27424  98.4043 312.9961 0001287 113.4651 320.6588 14.61821302256800"}}, "geometry": {"type": "Point", "coordinates": [-53.70923437235196, 42.08641648685764]}}, {"type": "Feature", "properties": {"norad_id": 28051, "name": "IRS-P6 (RESOURCESAT-1)", "group": "resource", "lat": 47.903689001287006, "lon": 23.897177473226268, "alt_km": 785.226276024654, "timestamp": "2025-12-18T23:35:48.703565+00:00", "meta": {"OBJECT_NAME": "IRS-P6 (RESOURCESAT-1)", "OBJECT_ID": "2003-046A", "EPOCH": "2025-12-18T14:02:53.720736", "MEAN_MOTION": 14.36077321, "ECCENTRICITY": 0.00644781, "INCLINATION": 98.2176, "RA_OF_ASC_NODE": 32.7219, "ARG_OF_PERICENTER": 163.1903, "MEAN_ANOMALY": 350.4409, "EPHEMERIS_TYPE": 0, "CLASSIFICATION_TYPE": "U", "NORAD_CAT_ID": 28051, "ELEMENT_SET_NO": 999, "REV_AT_EPOCH": 15460, "BSTAR": 4.6109636e-05, "MEAN_MOTION_DOT": 9.7e-07, "MEAN_MOTION_DDOT": 0}, "tle": {"line1": "1 28051U 03046A   25352.58534399  .00000097  00000+0  46110-4 0  9993", "line2": "2 28051  98.2176  32.7219 0064478 163.1903 350.4409 14.36077321154602"}}, "geometry": {"type": "Point", "coordinates": [23.897177473226268, 47.903689001287006]}}, {"type": "Feature", "properties": {"norad_id": 28220, "name": "SHIYAN-1 (SY-1)", "group": "resource", "lat": -11.031301613130562, "lon": -126.65909898559885, "alt_km": 486.51062468606233, "timestamp": "2025-12-18T23:35:48.703577+00:00", "meta": {"OBJECT_NAME": "SHIYAN-1 (SY-1)", "OBJECT_ID": "2004-012A", "EPOCH": "2025-12-18T10:11:31.808544", "MEAN_MOTION": 15.28290234, "ECCENTRICITY": 0.00053028, "INCLINATION": 97.8934, "RA_OF_ASC_NODE": 54.2992, "ARG_OF_PERICENTER": 302.6869, "MEAN_ANOMALY": 57.3857, "EPHEMERIS_TYPE": 0, "CLASSIFICATION_TYPE": "U", "NORAD_CAT_ID": 28220, "ELEMENT_SET_NO": 999, "REV_AT_EPOCH": 18343, "BSTAR": 0.00042791012, "MEAN_MOTION_DOT": 0.00011721, "MEAN_MOTION_DDOT": 0}, "tle": {"line1": "1 28220U 04012A   25352.42467371  .00011721  00000+0  42791-3 0  9999", "line2": "2 28220  97.8934  54.2992 0005302 302.6869  57.3857 15.28290234183431"}}, "geometry": {"type": "Point", "coordinates": [-126.65909898559885, -11.031301613130562]}}, {"type": "Feature", "properties": {"norad_id": 28376, "name": "AURA", "group": "resource", "lat": 24.961455415119378, "lon": 127.14446360047373, "alt_km": 688.9117397906411, "timestamp": "2025-12-18T23:35:48.703588+00:00", "meta": {"OBJECT_NAME": "AURA", "OBJECT_ID": "2004-026A", "EPOCH": "2025-12-18T14:40:22.013760", "MEAN_MOTION": 14.60959896, "ECCENTRICITY": 0.00013342, "INCLINATION": 98.3191, "RA_OF_ASC_NODE": 302.8654, "ARG_OF_PERICENTER": 93.2187, "MEAN_ANOMALY": 266.9166, "EPHEMERIS_TYPE": 0, "CLASSIFICATION_TYPE": "U", "NORAD_CAT_ID": 28376, "ELEMENT_SET_NO": 999, "REV_AT_EPOCH": 13984, "BSTAR": 0.0001743744, "MEAN_MOTION_DOT": 8.07e-06, "MEAN_MOTION_DDOT": 0}, "tle": {"line1": "1 28376U 04026A   25352.61136590  .00000807  00000+0  17437-3 0  9995", "line2": "2 28376  98.3191 302.8654 0001334  93.2187 266.9166 14.60959896139846"}}, "geometry": {"type": "Point", "coordinates": [127.14446360047373, 24.961455415119378]}}]}